{
  "type": "FeatureCollection",
  "features": [
    {
      "type": "Feature",
      "properties": {
        "norad_id": 15362,
        "name": "NOVA 3",
        "group": "nnss",
        "lat": 84.11038046962983,
        "lon": 79.45479687806355,
        "alt_km": 1182.4061929372901,
        "timestamp": "2025-12-21T14:40:48.185146+00:00",
        "meta_object_name": "NOVA 3",
        "meta_object_id": "1984-110A",
        "meta_epoch": "2025-12-21T07:18:51.929280",
        "meta_mean_motion": 13.230456,
        "meta_eccentricity": 0.00299857,
        "meta_inclination": 90.1221,
        "meta_ra_of_asc_node": 80.6356,
        "meta_arg_of_pericenter": 307.3194,
        "meta_mean_anomaly": 115.6582,
        "meta_ephemeris_type": 0,
        "meta_classification_type": "U",
        "meta_norad_cat_id": 15362,
        "meta_element_set_no": 999,
        "meta_rev_at_epoch": 98812,
        "meta_bstar": 0.00016433945,
        "meta_mean_motion_dot": 7.7e-07,
        "meta_mean_motion_ddot": 0,
        "tle_line1": "1 15362U 84110A   25355.30476770  .00000077  00000+0  16434-3 0  9999",
        "tle_line2": "2 15362  90.1221  80.6356 0029985 307.3194 115.6582 13.23045600988122"
      },
      "geometry": {
        "type": "Point",
        "coordinates": [
          79.45479687806355,
          84.11038046962983
        ]
      }
    },
    {
      "type": "Feature",
      "properties": {
        "norad_id": 15935,
        "name": "OSCAR 30",
        "group": "nnss",
        "lat": -41.075959868285075,
        "lon": -80.15211921573109,
        "alt_km": 1250.8975710455534,
        "timestamp": "2025-12-21T14:40:48.185157+00:00",
        "meta_object_name": "OSCAR 30",
        "meta_object_id": "1985-066A",
        "meta_epoch": "2025-12-21T06:41:53.387232",
        "meta_mean_motion": 13.36079593,
        "meta_eccentricity": 0.01691297,
        "meta_inclination": 90.1655,
        "meta_ra_of_asc_node": 99.9868,
        "meta_arg_of_pericenter": 60.0583,
        "meta_mean_anomaly": 1.5893,
        "meta_ephemeris_type": 0,
        "meta_classification_type": "U",
        "meta_norad_cat_id": 15935,
        "meta_element_set_no": 999,
        "meta_rev_at_epoch": 96567,
        "meta_bstar": 0.00014527963,
        "meta_mean_motion_dot": 9.1e-07,
        "meta_mean_motion_ddot": 0,
        "tle_line1": "1 15935U 85066A   25355.27909013  .00000091  00000+0  14528-3 0  9991",
        "tle_line2": "2 15935  90.1655  99.9868 0169129  60.0583   1.5893 13.36079593965675"
      },
      "geometry": {
        "type": "Point",
        "coordinates": [
          -80.15211921573109,
          -41.075959868285075
        ]
      }
    },
    {
      "type": "Feature",
      "properties": {
        "norad_id": 15936,
        "name": "OSCAR 24",
        "group": "nnss",
        "lat": -70.24769594239905,
        "lon": 92.96141307089077,
        "alt_km": 1222.3059586477802,
        "timestamp": "2025-12-21T14:40:48.185168+00:00",
        "meta_object_name": "OSCAR 24",
        "meta_object_id": "1985-066B",
        "meta_epoch": "2025-12-21T06:11:02.071968",
        "meta_mean_motion": 13.35936911,
        "meta_eccentricity": 0.01702608,
        "meta_inclination": 90.1791,
        "meta_ra_of_asc_node": 92.4561,
        "meta_arg_of_pericenter": 66.5575,
        "meta_mean_anomaly": 323.0621,
        "meta_ephemeris_type": 0,
        "meta_classification_type": "U",
        "meta_norad_cat_id": 15936,
        "meta_element_set_no": 999,
        "meta_rev_at_epoch": 96757,
        "meta_bstar": 0.00012482262,
        "meta_mean_motion_dot": 7.9e-07,
        "meta_mean_motion_ddot": 0,
        "tle_line1": "1 15936U 85066B   25355.25766287  .00000079  00000+0  12482-3 0  9997",
        "tle_line2": "2 15936  90.1791  92.4561 0170260  66.5575 323.0621 13.35936911967572"
      },
      "geometry": {
        "type": "Point",
        "coordinates": [
          92.96141307089077,
          -70.24769594239905
        ]
      }
    },
    {
      "type": "Feature",
      "properties": {
        "norad_id": 17070,
        "name": "POLAR BEAR",
        "group": "nnss",
        "lat": -59.12279910403608,
        "lon": -177.22264883434656,
        "alt_km": 1014.9537871340099,
        "timestamp": "2025-12-21T14:40:48.185179+00:00",
        "meta_object_name": "POLAR BEAR",
        "meta_object_id": "1986-088A",
        "meta_epoch": "2025-12-21T01:34:32.857248",
        "meta_mean_motion": 13.75252457,
        "meta_eccentricity": 0.00412794,
        "meta_inclination": 89.617,
        "meta_ra_of_asc_node": 183.4403,
        "meta_arg_of_pericenter": 95.2642,
        "meta_mean_anomaly": 24.2916,
        "meta_ephemeris_type": 0,
        "meta_classification_type": "U",
        "meta_norad_cat_id": 17070,
        "meta_element_set_no": 999,
        "meta_rev_at_epoch": 96093,
        "meta_bstar": 8.8420233e-05,
        "meta_mean_motion_dot": 9.7e-07,
        "meta_mean_motion_ddot": 0,
        "tle_line1": "1 17070U 86088A   25355.06565807  .00000097  00000+0  88420-4 0  9993",
        "tle_line2": "2 17070  89.6170 183.4403 0041279  95.2642  24.2916 13.75252457960934"
      },
      "geometry": {
        "type": "Point",
        "coordinates": [
          -177.22264883434656,
          -59.12279910403608
        ]
      }
    },
    {
      "type": "Feature",
      "properties": {
        "norad_id": 18361,
        "name": "OSCAR 27",
        "group": "nnss",
        "lat": -48.194628719400534,
        "lon": 80.02246473719532,
        "alt_km": 1128.328917032506,
        "timestamp": "2025-12-21T14:40:48.185189+00:00",
        "meta_object_name": "OSCAR 27",
        "meta_object_id": "1987-080A",
        "meta_epoch": "2025-12-21T04:12:33.527520",
        "meta_mean_motion": 13.44908294,
        "meta_eccentricity": 0.01036047,
        "meta_inclination": 90.3739,
        "meta_ra_of_asc_node": 79.5878,
        "meta_arg_of_pericenter": 199.4724,
        "meta_mean_anomaly": 160.2454,
        "meta_ephemeris_type": 0,
        "meta_classification_type": "U",
        "meta_norad_cat_id": 18361,
        "meta_element_set_no": 999,
        "meta_rev_at_epoch": 87670,
        "meta_bstar": 0.00014990466,
        "meta_mean_motion_dot": 9.9e-07,
        "meta_mean_motion_ddot": 0,
        "tle_line1": "1 18361U 87080A   25355.17538805  .00000099  00000+0  14990-3 0  9992",
        "tle_line2": "2 18361  90.3739  79.5878 0103604 199.4724 160.2454 13.44908294876700"
      },
      "geometry": {
        "type": "Point",
        "coordinates": [
          80.02246473719532,
          -48.194628719400534
        ]
      }
    },
    {
      "type": "Feature",
      "properties": {
        "norad_id": 18362,
        "name": "OSCAR 29",
        "group": "nnss",
        "lat": -50.51196203861279,
        "lon": 80.51921793792785,
        "alt_km": 1096.3147813096066,
        "timestamp": "2025-12-21T14:40:48.185199+00:00",
        "meta_object_name": "OSCAR 29",
        "meta_object_id": "1987-080B",
        "meta_epoch": "2025-12-21T04:17:34.545120",
        "meta_mean_motion": 13.44449861,
        "meta_eccentricity": 0.0104446,
        "meta_inclination": 90.3751,
        "meta_ra_of_asc_node": 80.0475,
        "meta_arg_of_pericenter": 222.704,
        "meta_mean_anomaly": 152.1595,
        "meta_ephemeris_type": 0,
        "meta_classification_type": "U",
        "meta_norad_cat_id": 18362,
        "meta_element_set_no": 999,
        "meta_rev_at_epoch": 87623,
        "meta_bstar": 0.00014493849,
        "meta_mean_motion_dot": 9.5e-07,
        "meta_mean_motion_ddot": 0,
        "tle_line1": "1 18362U 87080B   25355.17887205  .00000095  00000+0  14494-3 0  9999",
        "tle_line2": "2 18362  90.3751  80.0475 0104446 222.7040 152.1595 13.44449861876235"
      },
      "geometry": {
        "type": "Point",
        "coordinates": [
          80.51921793792785,
          -50.51196203861279
        ]
      }
    },
    {
      "type": "Feature",
      "properties": {
        "norad_id": 19070,
        "name": "OSCAR 23",
        "group": "nnss",
        "lat": -85.77359398090994,
        "lon": 21.00844562410895,
        "alt_km": 1229.8277866280123,
        "timestamp": "2025-12-21T14:40:48.185210+00:00",
        "meta_object_name": "OSCAR 23",
        "meta_object_id": "1988-033A",
        "meta_epoch": "2025-12-21T02:46:39.852192",
        "meta_mean_motion": 13.27788505,
        "meta_eccentricity": 0.01902215,
        "meta_inclination": 90.3203,
        "meta_ra_of_asc_node": 16.652,
        "meta_arg_of_pericenter": 156.671,
        "meta_mean_anomaly": 266.4478,
        "meta_ephemeris_type": 0,
        "meta_classification_type": "U",
        "meta_norad_cat_id": 19070,
        "meta_element_set_no": 999,
        "meta_rev_at_epoch": 82364,
        "meta_bstar": 0.00012247985,
        "meta_mean_motion_dot": 7e-07,
        "meta_mean_motion_ddot": 0,
        "tle_line1": "1 19070U 88033A   25355.11573903  .00000070  00000+0  12248-3 0  9994",
        "tle_line2": "2 19070  90.3203  16.6520 0190221 156.6710 266.4478 13.27788505823643"
      },
      "geometry": {
        "type": "Point",
        "coordinates": [
          21.00844562410895,
          -85.77359398090994
        ]
      }
    }
  ]
}